IRIDIUM 144             
1 43249U 18030A   25067.52573461  .00000217  00000+0  70419-4 0  9991
2 43249  86.3965 125.1081 0002213  90.7121 269.4328 14.34218824363392
IRIDIUM 149             
1 43250U 18030B   25068.15999361  .00000130  00000+0  39392-4 0  9993
2 43250  86.3960 124.8151 0002069  92.6980 267.4452 14.34218169363507
IRIDIUM 157             
1 43251U 18030C   25067.76041869  .00000409  00000+0  13899-3 0  9993
2 43251  86.3964 125.0250 0002267 102.0297 258.1153 14.34217306363420
IRIDIUM 140             
1 43252U 18030D   25068.12828128  .00000407  00000+0  13821-3 0  9999
2 43252  86.3963 124.8852 0002274  90.4343 269.7113 14.34219790363530
IRIDIUM 145             
1 43253U 18030E   25067.76675329  .00000398  00000+0  13490-3 0  9993
2 43253  86.3964 125.0094 0001992  85.4053 274.7370 14.34217400363415
IRIDIUM 146             
1 43254U 18030F   25068.16633535  .00000253  00000+0  83368-4 0  9994
2 43254  86.3961 124.8560 0002007  85.6483 274.4942 14.34216836363486
IRIDIUM 148             
1 43255U 18030G   25067.64624314  .00000258  00000+0  85073-4 0  9992
2 43255  86.3966 125.1096 0002080  95.7855 264.3578 14.34219233363450
IRIDIUM 142             
1 43256U 18030H   25067.54476116  .00000295  00000+0  98213-4 0  9998
2 43256  86.3962 125.0579 0001901  87.1092 273.0321 14.34219522363398
